STARLINK-32080          
1 59683U 24086B   26068.40814716  .00001583  00000+0  67046-4 0  9997
2 59683  43.0020  65.3845 0000768 267.2778  92.7986 15.27565794104033
ION SCV-017             
1 63230U 25052W   26068.71648816  .00006457  00000+0  24539-3 0  9998
2 63230  97.4016 324.7516 0023746  44.9875 315.3282 15.26881798 54851
